{
  "type": "FeatureCollection",
  "features": [
    {
      "type": "Feature",
      "properties": {
        "norad_id": 28890,
        "name": "BEIJING 1",
        "group": "dmc",
        "lat": 7.4725809338012645,
        "lon": 110.30636589695133,
        "alt_km": 692.7238714282958,
        "timestamp": "2025-12-09T21:34:11.073686+00:00",
        "meta_object_name": "BEIJING 1",
        "meta_object_id": "2005-043A",
        "meta_epoch": "2025-12-09T14:58:15.970944",
        "meta_mean_motion": 14.63362403,
        "meta_eccentricity": 0.00151414,
        "meta_inclination": 98.2657,
        "meta_ra_of_asc_node": 111.1234,
        "meta_arg_of_pericenter": 150.5806,
        "meta_mean_anomaly": 209.6251,
        "meta_ephemeris_type": 0,
        "meta_classification_type": "U",
        "meta_norad_cat_id": 28890,
        "meta_element_set_no": 999,
        "meta_rev_at_epoch": 7292,
        "meta_bstar": 0.00018820458,
        "meta_mean_motion_dot": 9.25e-06,
        "meta_mean_motion_ddot": 0,
        "tle_line1": "1 28890U 05043A   25343.62379596  .00000925  00000+0  18820-3 0  9990",
        "tle_line2": "2 28890  98.2657 111.1234 0015141 150.5806 209.6251 14.63362403 72923"
      },
      "geometry": {
        "type": "Point",
        "coordinates": [
          110.30636589695133,
          7.4725809338012645
        ]
      }
    },
    {
      "type": "Feature",
      "properties": {
        "norad_id": 33320,
        "name": "HUANJING 1A (HJ-1A)",
        "group": "dmc",
        "lat": -10.93176476213618,
        "lon": 150.8272010543234,
        "alt_km": 635.0376478414655,
        "timestamp": "2025-12-09T21:34:11.073715+00:00",
        "meta_object_name": "HUANJING 1A (HJ-1A)",
        "meta_object_id": "2008-041A",
        "meta_epoch": "2025-12-09T14:14:14.463744",
        "meta_mean_motion": 14.83375519,
        "meta_eccentricity": 0.00203423,
        "meta_inclination": 97.654,
        "meta_ra_of_asc_node": 332.0228,
        "meta_arg_of_pericenter": 44.316,
        "meta_mean_anomaly": 315.9678,
        "meta_ephemeris_type": 0,
        "meta_classification_type": "U",
        "meta_norad_cat_id": 33320,
        "meta_element_set_no": 999,
        "meta_rev_at_epoch": 93029,
        "meta_bstar": 0.00013610067,
        "meta_mean_motion_dot": 1.069e-05,
        "meta_mean_motion_ddot": 0,
        "tle_line1": "1 33320U 08041A   25343.59322296  .00001069  00000+0  13610-3 0  9998",
        "tle_line2": "2 33320  97.6540 332.0228 0020342  44.3160 315.9678 14.83375519930291"
      },
      "geometry": {
        "type": "Point",
        "coordinates": [
          150.8272010543234,
          -10.93176476213618
        ]
      }
    },
    {
      "type": "Feature",
      "properties": {
        "norad_id": 33321,
        "name": "HUANJING 1B (HJ-1B)",
        "group": "dmc",
        "lat": 56.69676530747956,
        "lon": -35.76963607931034,
        "alt_km": 591.1767744172603,
        "timestamp": "2025-12-09T21:34:11.073731+00:00",
        "meta_object_name": "HUANJING 1B (HJ-1B)",
        "meta_object_id": "2008-041B",
        "meta_epoch": "2025-12-09T14:50:03.459840",
        "meta_mean_motion": 14.82808961,
        "meta_eccentricity": 0.00382641,
        "meta_inclination": 97.6399,
        "meta_ra_of_asc_node": 335.7517,
        "meta_arg_of_pericenter": 85.5122,
        "meta_mean_anomaly": 275.0462,
        "meta_ephemeris_type": 0,
        "meta_classification_type": "U",
        "meta_norad_cat_id": 33321,
        "meta_element_set_no": 999,
        "meta_rev_at_epoch": 93031,
        "meta_bstar": 0.0002606067,
        "meta_mean_motion_dot": 2.084e-05,
        "meta_mean_motion_ddot": 0,
        "tle_line1": "1 33321U 08041B   25343.61809560  .00002084  00000+0  26061-3 0  9998",
        "tle_line2": "2 33321  97.6399 335.7517 0038264  85.5122 275.0462 14.82808961930313"
      },
      "geometry": {
        "type": "Point",
        "coordinates": [
          -35.76963607931034,
          56.69676530747956
        ]
      }
    },
    {
      "type": "Feature",
      "properties": {
        "norad_id": 33446,
        "name": "YAOGAN-4",
        "group": "dmc",
        "lat": -29.079257533528544,
        "lon": -81.53515922667361,
        "alt_km": 617.1412614113215,
        "timestamp": "2025-12-09T21:34:11.073743+00:00",
        "meta_object_name": "YAOGAN-4",
        "meta_object_id": "2008-061A",
        "meta_epoch": "2025-12-09T13:36:11.546784",
        "meta_mean_motion": 14.82667849,
        "meta_eccentricity": 0.00138508,
        "meta_inclination": 97.918,
        "meta_ra_of_asc_node": 273.6972,
        "meta_arg_of_pericenter": 334.0999,
        "meta_mean_anomaly": 25.9519,
        "meta_ephemeris_type": 0,
        "meta_classification_type": "U",
        "meta_norad_cat_id": 33446,
        "meta_element_set_no": 999,
        "meta_rev_at_epoch": 91756,
        "meta_bstar": 0.00035667818,
        "meta_mean_motion_dot": 2.827e-05,
        "meta_mean_motion_ddot": 0,
        "tle_line1": "1 33446U 08061A   25343.56680031  .00002827  00000+0  35668-3 0  9990",
        "tle_line2": "2 33446  97.9180 273.6972 0013850 334.0999  25.9519 14.82667849917560"
      },
      "geometry": {
        "type": "Point",
        "coordinates": [
          -81.53515922667361,
          -29.079257533528544
        ]
      }
    },
    {
      "type": "Feature",
      "properties": {
        "norad_id": 35681,
        "name": "DEIMOS-1",
        "group": "dmc",
        "lat": 0.33694881200217186,
        "lon": -35.32049268001695,
        "alt_km": 648.5062888934608,
        "timestamp": "2025-12-09T21:34:11.073755+00:00",
        "meta_object_name": "DEIMOS-1",
        "meta_object_id": "2009-041A",
        "meta_epoch": "2025-12-09T14:14:45.179808",
        "meta_mean_motion": 14.74944345,
        "meta_eccentricity": 0.00027176,
        "meta_inclination": 97.7147,
        "meta_ra_of_asc_node": 144.343,
        "meta_arg_of_pericenter": 84.3673,
        "meta_mean_anomaly": 275.7847,
        "meta_ephemeris_type": 0,
        "meta_classification_type": "U",
        "meta_norad_cat_id": 35681,
        "meta_element_set_no": 999,
        "meta_rev_at_epoch": 87893,
        "meta_bstar": 0.00014331753,
        "meta_mean_motion_dot": 9.15e-06,
        "meta_mean_motion_ddot": 0,
        "tle_line1": "1 35681U 09041A   25343.59357847  .00000915  00000+0  14332-3 0  9992",
        "tle_line2": "2 35681  97.7147 144.3430 0002717  84.3673 275.7847 14.74944345878937"
      },
      "geometry": {
        "type": "Point",
        "coordinates": [
          -35.32049268001695,
          0.33694881200217186
        ]
      }
    },
    {
      "type": "Feature",
      "properties": {
        "norad_id": 35683,
        "name": "UK-DMC 2",
        "group": "dmc",
        "lat": -7.7826408820912025,
        "lon": -62.19968848381079,
        "alt_km": 647.2067258352745,
        "timestamp": "2025-12-09T21:34:11.073766+00:00",
        "meta_object_name": "UK-DMC 2",
        "meta_object_id": "2009-041C",
        "meta_epoch": "2025-12-09T15:50:22.000704",
        "meta_mean_motion": 14.75610169,
        "meta_eccentricity": 0.00013802,
        "meta_inclination": 97.8564,
        "meta_ra_of_asc_node": 118.6497,
        "meta_arg_of_pericenter": 97.2407,
        "meta_mean_anomaly": 262.8959,
        "meta_ephemeris_type": 0,
        "meta_classification_type": "U",
        "meta_norad_cat_id": 35683,
        "meta_element_set_no": 999,
        "meta_rev_at_epoch": 87861,
        "meta_bstar": 0.00020668902,
        "meta_mean_motion_dot": 1.361e-05,
        "meta_mean_motion_ddot": 0,
        "tle_line1": "1 35683U 09041C   25343.65997686  .00001361  00000+0  20669-3 0  9998",
        "tle_line2": "2 35683  97.8564 118.6497 0001380  97.2407 262.8959 14.75610169878614"
      },
      "geometry": {
        "type": "Point",
        "coordinates": [
          -62.19968848381079,
          -7.7826408820912025
        ]
      }
    },
    {
      "type": "Feature",
      "properties": {
        "norad_id": 40715,
        "name": "DMC3-FM1",
        "group": "dmc",
        "lat": 42.95977344565429,
        "lon": 38.40252423804543,
        "alt_km": 611.9454562923502,
        "timestamp": "2025-12-09T21:34:11.073777+00:00",
        "meta_object_name": "DMC3-FM1",
        "meta_object_id": "2015-032A",
        "meta_epoch": "2025-12-09T14:29:26.273184",
        "meta_mean_motion": 14.85433572,
        "meta_eccentricity": 0.00048343,
        "meta_inclination": 97.669,
        "meta_ra_of_asc_node": 210.9102,
        "meta_arg_of_pericenter": 333.5959,
        "meta_mean_anomaly": 26.501,
        "meta_ephemeris_type": 0,
        "meta_classification_type": "U",
        "meta_norad_cat_id": 40715,
        "meta_element_set_no": 999,
        "meta_rev_at_epoch": 56176,
        "meta_bstar": 0.00019936447,
        "meta_mean_motion_dot": 1.667e-05,
        "meta_mean_motion_ddot": 0,
        "tle_line1": "1 40715U 15032A   25343.60377631  .00001667  00000+0  19936-3 0  9998",
        "tle_line2": "2 40715  97.6690 210.9102 0004834 333.5959  26.5010 14.85433572561768"
      },
      "geometry": {
        "type": "Point",
        "coordinates": [
          38.40252423804543,
          42.95977344565429
        ]
      }
    },
    {
      "type": "Feature",
      "properties": {
        "norad_id": 40716,
        "name": "DMC3-FM2",
        "group": "dmc",
        "lat": 15.995135835775816,
        "lon": -149.5790475117523,
        "alt_km": 609.9294663637456,
        "timestamp": "2025-12-09T21:34:11.073788+00:00",
        "meta_object_name": "DMC3-FM2",
        "meta_object_id": "2015-032B",
        "meta_epoch": "2025-12-09T15:01:50.206656",
        "meta_mean_motion": 14.85432944,
        "meta_eccentricity": 0.00055756,
        "meta_inclination": 97.6747,
        "meta_ra_of_asc_node": 212.3736,
        "meta_arg_of_pericenter": 338.1865,
        "meta_mean_anomaly": 21.9113,
        "meta_ephemeris_type": 0,
        "meta_classification_type": "U",
        "meta_norad_cat_id": 40716,
        "meta_element_set_no": 999,
        "meta_rev_at_epoch": 56176,
        "meta_bstar": 0.00010258121,
        "meta_mean_motion_dot": 8.33e-06,
        "meta_mean_motion_ddot": 0,
        "tle_line1": "1 40716U 15032B   25343.62627554  .00000833  00000+0  10258-3 0  9995",
        "tle_line2": "2 40716  97.6747 212.3736 0005575 338.1865  21.9113 14.85432944561766"
      },
      "geometry": {
        "type": "Point",
        "coordinates": [
          -149.5790475117523,
          15.995135835775816
        ]
      }
    },
    {
      "type": "Feature",
      "properties": {
        "norad_id": 40717,
        "name": "DMC3-FM3",
        "group": "dmc",
        "lat": -77.97553836033893,
        "lon": -5.043614111791296,
        "alt_km": 618.8910443038094,
        "timestamp": "2025-12-09T21:34:11.073799+00:00",
        "meta_object_name": "DMC3-FM3",
        "meta_object_id": "2015-032C",
        "meta_epoch": "2025-12-09T13:55:56.603136",
        "meta_mean_motion": 14.854215,
        "meta_eccentricity": 0.00049567,
        "meta_inclination": 97.6801,
        "meta_ra_of_asc_node": 213.9602,
        "meta_arg_of_pericenter": 339.8139,
        "meta_mean_anomaly": 20.2879,
        "meta_ephemeris_type": 0,
        "meta_classification_type": "U",
        "meta_norad_cat_id": 40717,
        "meta_element_set_no": 999,
        "meta_rev_at_epoch": 56176,
        "meta_bstar": 7.5164866e-05,
        "meta_mean_motion_dot": 5.96e-06,
        "meta_mean_motion_ddot": 0,
        "tle_line1": "1 40717U 15032C   25343.58051624  .00000596  00000+0  75165-4 0  9995",
        "tle_line2": "2 40717  97.6801 213.9602 0004956 339.8139  20.2879 14.85421500561768"
      },
      "geometry": {
        "type": "Point",
        "coordinates": [
          -5.043614111791296,
          -77.97553836033893
        ]
      }
    }
  ]
}